SPAWAR-CAL-O            
1 43766U 18099J   26068.73975788  .00021069  00000+0  69663-3 0  9999
2 43766  97.4452 132.0993 0007239 285.0670  74.9770 15.31356755398280
STARLINK-34403          
1 64443U 25130F   26068.47634522  .00022848  00000+0  78102-3 0  9991
2 64443  53.1588  89.2962 0000846  88.1397 271.9700 15.30206311 40678
